STARLINK-32265          
1 60415U 24141T   25343.12751556 -.00000178  00000+0  61240-5 0  9991
2 60415  53.1612 303.3463 0001151  96.7042 263.4090 15.30199974 75716
STARLINK-32197          
1 60416U 24141U   25343.13392272 -.00009962  00000+0 -32425-3 0  9991
2 60416  53.1616 293.4225 0001292  90.3988 269.7161 15.30241836 75792
STARLINK-32255          
1 60417U 24141V   25343.18333132  .00000482  00000+0  28386-4 0  9995
2 60417  53.1611 302.9809 0001005  78.7814 281.3300 15.30197458 75720
STARLINK-32236          
1 60418U 24141W   25343.17911233  .00011080  00000+0  38562-3 0  9991
2 60418  53.1601 302.9562 0001232  96.7207 263.3934 15.30202413 75725
STARLINK-32250          
1 60425U 24144A   25343.08642106 -.00001691  00000+0 -44972-4 0  9994
2 60425  53.1616 278.2489 0001287  84.5433 275.5715 15.30198833 74538
STARLINK-32226          
1 60426U 24144B   25343.08536845 -.00001071  00000+0 -24054-4 0  9998
2 60426  53.1629 278.2400 0001311  73.2782 286.8363 15.30195330 75439
STARLINK-32254          
1 60427U 24144C   25343.07272928 -.00002449  00000+0 -70637-4 0  9995
2 60427  53.1611 278.1583 0001444  76.4951 283.6210 15.30176539 75472
STARLINK-32193          
1 60428U 24144D   25343.14856978 -.00003098  00000+0 -92512-4 0  9994
2 60428  53.1623 277.9228 0001388  82.4052 277.7106 15.30201689 75489
STARLINK-32242          
1 60429U 24144E   25343.14118997  .00005257  00000+0  18963-3 0  9991
2 60429  53.1614 277.8741 0001249  92.0728 268.0416 15.30175367 75482
STARLINK-32196          
1 60430U 24144F   25343.13485661  .00000505  00000+0  29168-4 0  9998
2 60430  53.1600 277.8356 0001000  98.6459 261.4655 15.30188177 75440
STARLINK-32232          
1 60431U 24144G   25343.14540838  .00003228  00000+0  12108-3 0  9998
2 60431  53.1613 277.9037 0001379  79.4053 280.7103 15.30193348 75446
STARLINK-32246          
1 60432U 24144H   25343.13379720  .00000615  00000+0  32898-4 0  9994
2 60432  53.1610 277.8292 0000981  93.6149 266.4964 15.30192579 75449
STARLINK-32183          
1 60433U 24144J   25343.13168414 -.00001748  00000+0 -46925-4 0  9997
2 60433  53.1599 277.8161 0000856 103.1249 256.9848 15.30203155 75448
STARLINK-32233          
1 60434U 24144K   25343.12219155  .00000465  00000+0  27825-4 0  9997
2 60434  53.1623 277.7531 0001226  76.9135 283.2003 15.30192616 75445
STARLINK-32222          
1 60435U 24144L   25343.12535538  .00002449  00000+0  94776-4 0  9997
2 60435  53.1588 277.7751 0001006  83.5999 276.5116 15.30195004 75442
STARLINK-32229          
1 60436U 24144M   25343.11902744  .00001251  00000+0  54375-4 0  9995
2 60436  53.1606 277.7379 0001356  89.1822 270.9334 15.30186440 75449
STARLINK-32241          
1 60437U 24144N   25343.11797424  .00002308  00000+0  90064-4 0  9992
2 60437  53.1602 277.7324 0001828 108.5637 251.5562 15.30187139 75444
