[{"OBJECT_NAME":"STARLINK-32265","OBJECT_ID":"2024-141T","EPOCH":"2025-12-09T03:03:37.344384","MEAN_MOTION":15.30199974,"ECCENTRICITY":0.0001151,"INCLINATION":53.1612,"RA_OF_ASC_NODE":303.3463,"ARG_OF_PERICENTER":96.7042,"MEAN_ANOMALY":263.409,"EPHEMERIS_TYPE":0,"CLASSIFICATION_TYPE":"U","NORAD_CAT_ID":60415,"ELEMENT_SET_NO":999,"REV_AT_EPOCH":7571,"BSTAR":6.124e-6,"MEAN_MOTION_DOT":-1.78e-6,"MEAN_MOTION_DDOT":0},{"OBJECT_NAME":"STARLINK-32197","OBJECT_ID":"2024-141U","EPOCH":"2025-12-09T03:12:50.923008","MEAN_MOTION":15.30241836,"ECCENTRICITY":0.0001292,"INCLINATION":53.1616,"RA_OF_ASC_NODE":293.4225,"ARG_OF_PERICENTER":90.3988,"MEAN_ANOMALY":269.7161,"EPHEMERIS_TYPE":0,"CLASSIFICATION_TYPE":"U","NORAD_CAT_ID":60416,"ELEMENT_SET_NO":999,"REV_AT_EPOCH":7579,"BSTAR":-0.00032425,"MEAN_MOTION_DOT":-9.962e-5,"MEAN_MOTION_DDOT":0},{"OBJECT_NAME":"STARLINK-32255","OBJECT_ID":"2024-141V","EPOCH":"2025-12-09T04:23:59.826048","MEAN_MOTION":15.30197458,"ECCENTRICITY":0.0001005,"INCLINATION":53.1611,"RA_OF_ASC_NODE":302.9809,"ARG_OF_PERICENTER":78.7814,"MEAN_ANOMALY":281.33,"EPHEMERIS_TYPE":0,"CLASSIFICATION_TYPE":"U","NORAD_CAT_ID":60417,"ELEMENT_SET_NO":999,"REV_AT_EPOCH":7572,"BSTAR":2.8386e-5,"MEAN_MOTION_DOT":4.82e-6,"MEAN_MOTION_DDOT":0},{"OBJECT_NAME":"STARLINK-32236","OBJECT_ID":"2024-141W","EPOCH":"2025-12-09T04:17:55.305312","MEAN_MOTION":15.30202413,"ECCENTRICITY":0.0001232,"INCLINATION":53.1601,"RA_OF_ASC_NODE":302.9562,"ARG_OF_PERICENTER":96.7207,"MEAN_ANOMALY":263.3934,"EPHEMERIS_TYPE":0,"CLASSIFICATION_TYPE":"U","NORAD_CAT_ID":60418,"ELEMENT_SET_NO":999,"REV_AT_EPOCH":7572,"BSTAR":0.00038562,"MEAN_MOTION_DOT":0.0001108,"MEAN_MOTION_DDOT":0},{"OBJECT_NAME":"STARLINK-32250","OBJECT_ID":"2024-144A","EPOCH":"2025-12-09T02:04:26.779584","MEAN_MOTION":15.30198833,"ECCENTRICITY":0.0001287,"INCLINATION":53.1616,"RA_OF_ASC_NODE":278.2489,"ARG_OF_PERICENTER":84.5433,"MEAN_ANOMALY":275.5715,"EPHEMERIS_TYPE":0,"CLASSIFICATION_TYPE":"U","NORAD_CAT_ID":60425,"ELEMENT_SET_NO":999,"REV_AT_EPOCH":7453,"BSTAR":-4.4972e-5,"MEAN_MOTION_DOT":-1.691e-5,"MEAN_MOTION_DDOT":0},{"OBJECT_NAME":"STARLINK-32226","OBJECT_ID":"2024-144B","EPOCH":"2025-12-09T02:02:55.834080","MEAN_MOTION":15.3019533,"ECCENTRICITY":0.0001311,"INCLINATION":53.1629,"RA_OF_ASC_NODE":278.24,"ARG_OF_PERICENTER":73.2782,"MEAN_ANOMALY":286.8363,"EPHEMERIS_TYPE":0,"CLASSIFICATION_TYPE":"U","NORAD_CAT_ID":60426,"ELEMENT_SET_NO":999,"REV_AT_EPOCH":7543,"BSTAR":-2.4054e-5,"MEAN_MOTION_DOT":-1.071e-5,"MEAN_MOTION_DDOT":0},{"OBJECT_NAME":"STARLINK-32254","OBJECT_ID":"2024-144C","EPOCH":"2025-12-09T01:44:43.809792","MEAN_MOTION":15.30176539,"ECCENTRICITY":0.0001444,"INCLINATION":53.1611,"RA_OF_ASC_NODE":278.1583,"ARG_OF_PERICENTER":76.4951,"MEAN_ANOMALY":283.621,"EPHEMERIS_TYPE":0,"CLASSIFICATION_TYPE":"U","NORAD_CAT_ID":60427,"ELEMENT_SET_NO":999,"REV_AT_EPOCH":7547,"BSTAR":-7.0637e-5,"MEAN_MOTION_DOT":-2.449e-5,"MEAN_MOTION_DDOT":0},{"OBJECT_NAME":"STARLINK-32193","OBJECT_ID":"2024-144D","EPOCH":"2025-12-09T03:33:56.428992","MEAN_MOTION":15.30201689,"ECCENTRICITY":0.0001388,"INCLINATION":53.1623,"RA_OF_ASC_NODE":277.9228,"ARG_OF_PERICENTER":82.4052,"MEAN_ANOMALY":277.7106,"EPHEMERIS_TYPE":0,"CLASSIFICATION_TYPE":"U","NORAD_CAT_ID":60428,"ELEMENT_SET_NO":999,"REV_AT_EPOCH":7548,"BSTAR":-9.2512e-5,"MEAN_MOTION_DOT":-3.098e-5,"MEAN_MOTION_DDOT":0},{"OBJECT_NAME":"STARLINK-32242","OBJECT_ID":"2024-144E","EPOCH":"2025-12-09T03:23:18.813408","MEAN_MOTION":15.30175367,"ECCENTRICITY":0.0001249,"INCLINATION":53.1614,"RA_OF_ASC_NODE":277.8741,"ARG_OF_PERICENTER":92.0728,"MEAN_ANOMALY":268.0416,"EPHEMERIS_TYPE":0,"CLASSIFICATION_TYPE":"U","NORAD_CAT_ID":60429,"ELEMENT_SET_NO":999,"REV_AT_EPOCH":7548,"BSTAR":0.00018963,"MEAN_MOTION_DOT":5.257e-5,"MEAN_MOTION_DDOT":0},{"OBJECT_NAME":"STARLINK-32196","OBJECT_ID":"2024-144F","EPOCH":"2025-12-09T03:14:11.611104","MEAN_MOTION":15.30188177,"ECCENTRICITY":0.0001,"INCLINATION":53.16,"RA_OF_ASC_NODE":277.8356,"ARG_OF_PERICENTER":98.6459,"MEAN_ANOMALY":261.4655,"EPHEMERIS_TYPE":0,"CLASSIFICATION_TYPE":"U","NORAD_CAT_ID":60430,"ELEMENT_SET_NO":999,"REV_AT_EPOCH":7544,"BSTAR":2.9168e-5,"MEAN_MOTION_DOT":5.05e-6,"MEAN_MOTION_DDOT":0},{"OBJECT_NAME":"STARLINK-32232","OBJECT_ID":"2024-144G","EPOCH":"2025-12-09T03:29:23.284032","MEAN_MOTION":15.30193348,"ECCENTRICITY":0.0001379,"INCLINATION":53.1613,"RA_OF_ASC_NODE":277.9037,"ARG_OF_PERICENTER":79.4053,"MEAN_ANOMALY":280.7103,"EPHEMERIS_TYPE":0,"CLASSIFICATION_TYPE":"U","NORAD_CAT_ID":60431,"ELEMENT_SET_NO":999,"REV_AT_EPOCH":7544,"BSTAR":0.00012108,"MEAN_MOTION_DOT":3.228e-5,"MEAN_MOTION_DDOT":0},{"OBJECT_NAME":"STARLINK-32246","OBJECT_ID":"2024-144H","EPOCH":"2025-12-09T03:12:40.078080","MEAN_MOTION":15.30192579,"ECCENTRICITY":9.81e-5,"INCLINATION":53.161,"RA_OF_ASC_NODE":277.8292,"ARG_OF_PERICENTER":93.6149,"MEAN_ANOMALY":266.4964,"EPHEMERIS_TYPE":0,"CLASSIFICATION_TYPE":"U","NORAD_CAT_ID":60432,"ELEMENT_SET_NO":999,"REV_AT_EPOCH":7544,"BSTAR":3.2898e-5,"MEAN_MOTION_DOT":6.15e-6,"MEAN_MOTION_DDOT":0},{"OBJECT_NAME":"STARLINK-32183","OBJECT_ID":"2024-144J","EPOCH":"2025-12-09T03:09:37.509696","MEAN_MOTION":15.30203155,"ECCENTRICITY":8.56e-5,"INCLINATION":53.1599,"RA_OF_ASC_NODE":277.8161,"ARG_OF_PERICENTER":103.1249,"MEAN_ANOMALY":256.9848,"EPHEMERIS_TYPE":0,"CLASSIFICATION_TYPE":"U","NORAD_CAT_ID":60433,"ELEMENT_SET_NO":999,"REV_AT_EPOCH":7544,"BSTAR":-4.6925e-5,"MEAN_MOTION_DOT":-1.748e-5,"MEAN_MOTION_DDOT":0},{"OBJECT_NAME":"STARLINK-32233","OBJECT_ID":"2024-144K","EPOCH":"2025-12-09T02:55:57.349920","MEAN_MOTION":15.30192616,"ECCENTRICITY":0.0001226,"INCLINATION":53.1623,"RA_OF_ASC_NODE":277.7531,"ARG_OF_PERICENTER":76.9135,"MEAN_ANOMALY":283.2003,"EPHEMERIS_TYPE":0,"CLASSIFICATION_TYPE":"U","NORAD_CAT_ID":60434,"ELEMENT_SET_NO":999,"REV_AT_EPOCH":7544,"BSTAR":2.7825e-5,"MEAN_MOTION_DOT":4.65e-6,"MEAN_MOTION_DDOT":0},{"OBJECT_NAME":"STARLINK-32222","OBJECT_ID":"2024-144L","EPOCH":"2025-12-09T03:00:30.704832","MEAN_MOTION":15.30195004,"ECCENTRICITY":0.0001006,"INCLINATION":53.1588,"RA_OF_ASC_NODE":277.7751,"ARG_OF_PERICENTER":83.5999,"MEAN_ANOMALY":276.5116,"EPHEMERIS_TYPE":0,"CLASSIFICATION_TYPE":"U","NORAD_CAT_ID":60435,"ELEMENT_SET_NO":999,"REV_AT_EPOCH":7544,"BSTAR":9.4776e-5,"MEAN_MOTION_DOT":2.449e-5,"MEAN_MOTION_DDOT":0},{"OBJECT_NAME":"STARLINK-32229","OBJECT_ID":"2024-144M","EPOCH":"2025-12-09T02:51:23.970816","MEAN_MOTION":15.3018644,"ECCENTRICITY":0.0001356,"INCLINATION":53.1606,"RA_OF_ASC_NODE":277.7379,"ARG_OF_PERICENTER":89.1822,"MEAN_ANOMALY":270.9334,"EPHEMERIS_TYPE":0,"CLASSIFICATION_TYPE":"U","NORAD_CAT_ID":60436,"ELEMENT_SET_NO":999,"REV_AT_EPOCH":7544,"BSTAR":5.4375e-5,"MEAN_MOTION_DOT":1.251e-5,"MEAN_MOTION_DDOT":0},{"OBJECT_NAME":"STARLINK-32241","OBJECT_ID":"2024-144N","EPOCH":"2025-12-09T02:49:52.974336","MEAN_MOTION":15.30187139,"ECCENTRICITY":0.0001828,"INCLINATION":53.1602,"RA_OF_ASC_NODE":277.7324,"ARG_OF_PERICENTER":108.5637,"MEAN_ANOMALY":251.5562,"EPHEMERIS_TYPE":0,"CLASSIFICATION_TYPE":"U","NORAD_CAT_ID":60437,"ELEMENT_SET_NO":999,"REV_AT_EPOCH":7544,"BSTAR":9.0064e-5,"MEAN_MOTION_DOT":2.308e-5,"MEAN_MOTION_DDOT":0}]
